start=new Date('2022-02-23T00:00:00.000Z').valueOf();
sats=[{"EPOCH":"2022-02-22T20:47:34.799136","RA_OF_ASC_NODE":"226.8391","PERIOD":"95.593","APOAPSIS":"548.280","MEAN_MOTION":"15.06394188","PERIAPSIS":"546.183","REF_FRAME":"TEME","OBJECT_TYPE":"PAYLOAD","CLASSIFICATION_TYPE":"U","MEAN_MOTION_DDOT":"0.0000000000000","MEAN_ELEMENT_THEORY":"SGP4","RCS_SIZE":"LARGE","DECAY_DATE":null,"NORAD_CAT_ID":"48295","MEAN_MOTION_DOT":"-0.00000239","SITE":"AFETR","ELEMENT_SET_NO":"999","EPHEMERIS_TYPE":"0","OBJECT_NAME":"STARLINK-2535","MEAN_ANOMALY":"286.7385","TLE_LINE1":"1 48295U 21036V   22053.86637499 -.00000239  00000-0  28253-5 0  9994","COUNTRY_CODE":"US","OBJECT_ID":"2021-036V","INCLINATION":"53.0526","CENTER_NAME":"EARTH","BSTAR":"0.00000282530000","TLE_LINE2":"2 48295  53.0526 226.8391 0001514  73.3770 286.7385 15.06394188 45878","SEMIMAJOR_AXIS":"6925.366","FILE":"3314780","TIME_SYSTEM":"UTC","ECCENTRICITY":"0.00015140","GP_ID":"196685254","ARG_OF_PERICENTER":"73.3770","REV_AT_EPOCH":"4587","LAUNCH_DATE":"2021-04-29"},{"MEAN_ANOMALY":"286.0484","TLE_LINE1":"1 48296U 21036W   22053.86268398 -.00000142  00000-0  93982-5 0  9997","OBJECT_NAME":"STARLINK-2546","COUNTRY_CODE":"US","EPHEMERIS_TYPE":"0","ELEMENT_SET_NO":"999","SITE":"AFETR","MEAN_MOTION_DOT":"-0.00000142","BSTAR":"0.00000939820000","CENTER_NAME":"EARTH","SEMIMAJOR_AXIS":"6925.360","TLE_LINE2":"2 48296  53.0535 226.8659 0001584  74.0680 286.0484 15.06396258 45874","INCLINATION":"53.0535","OBJECT_ID":"2021-036W","ECCENTRICITY":"0.00015840","GP_ID":"196684002","FILE":"3314780","TIME_SYSTEM":"UTC","LAUNCH_DATE":"2021-04-29","REV_AT_EPOCH":"4587","ARG_OF_PERICENTER":"74.0680","APOAPSIS":"548.322","EPOCH":"2022-02-22T20:42:15.895872","RA_OF_ASC_NODE":"226.8659","PERIOD":"95.592","REF_FRAME":"TEME","MEAN_MOTION":"15.06396258","PERIAPSIS":"546.128","MEAN_MOTION_DDOT":"0.0000000000000","CLASSIFICATION_TYPE":"U","OBJECT_TYPE":"PAYLOAD","NORAD_CAT_ID":"48296","RCS_SIZE":"LARGE","MEAN_ELEMENT_THEORY":"SGP4","DECAY_DATE":null},{"INCLINATION":"53.0536","OBJECT_ID":"2021-036X","BSTAR":"0.00001106500000","CENTER_NAME":"EARTH","SEMIMAJOR_AXIS":"6925.362","TLE_LINE2":"2 48297  53.0536 226.8802 0002136  54.6148 305.5040 15.06395630 45871","EPHEMERIS_TYPE":"0","SITE":"AFETR","ELEMENT_SET_NO":"999","MEAN_MOTION_DOT":"-0.00000117","TLE_LINE1":"1 48297U 21036X   22053.85900291 -.00000117  00000-0  11065-4 0  9995","MEAN_ANOMALY":"305.5040","OBJECT_NAME":"STARLINK-2544","COUNTRY_CODE":"US","ARG_OF_PERICENTER":"54.6148","REV_AT_EPOCH":"4587","LAUNCH_DATE":"2021-04-29","TIME_SYSTEM":"UTC","FILE":"3314780","ECCENTRICITY":"0.00021360","GP_ID":"196684252","MEAN_MOTION":"15.06395630","PERIAPSIS":"545.748","REF_FRAME":"TEME","EPOCH":"2022-02-22T20:36:57.851424","RA_OF_ASC_NODE":"226.8802","PERIOD":"95.592","APOAPSIS":"548.706","RCS_SIZE":"LARGE","MEAN_ELEMENT_THEORY":"SGP4","DECAY_DATE":null,"NORAD_CAT_ID":"48297","OBJECT_TYPE":"PAYLOAD","MEAN_MOTION_DDOT":"0.0000000000000","CLASSIFICATION_TYPE":"U"},{"FILE":"3314780","TIME_SYSTEM":"UTC","GP_ID":"196684503","ECCENTRICITY":"0.00013420","ARG_OF_PERICENTER":"68.7902","REV_AT_EPOCH":"4587","LAUNCH_DATE":"2021-04-29","SITE":"AFETR","ELEMENT_SET_NO":"999","MEAN_MOTION_DOT":"0.00000084","EPHEMERIS_TYPE":"0","COUNTRY_CODE":"US","OBJECT_NAME":"STARLINK-2559","TLE_LINE1":"1 48298U 21036Y   22053.85531559  .00000084  00000-0  24504-4 0  9997","MEAN_ANOMALY":"291.3231","INCLINATION":"53.0537","OBJECT_ID":"2021-036Y","TLE_LINE2":"2 48298  53.0537 226.8995 0001342  68.7902 291.3231 15.06395816 45878","SEMIMAJOR_AXIS":"6925.361","CENTER_NAME":"EARTH","BSTAR":"0.00002450400000","OBJECT_TYPE":"PAYLOAD","CLASSIFICATION_TYPE":"U","MEAN_MOTION_DDOT":"0.0000000000000","DECAY_DATE":null,"MEAN_ELEMENT_THEORY":"SGP4","RCS_SIZE":"LARGE","NORAD_CAT_ID":"48298","RA_OF_ASC_NODE":"226.8995","PERIOD":"95.592","EPOCH":"2022-02-22T20:31:39.266976","APOAPSIS":"548.156","PERIAPSIS":"546.297","MEAN_MOTION":"15.06395816","REF_FRAME":"TEME"},{"APOAPSIS":"548.516","PERIOD":"95.592","RA_OF_ASC_NODE":"226.9211","EPOCH":"2022-02-22T20:26:21.002208","REF_FRAME":"TEME","PERIAPSIS":"545.924","MEAN_MOTION":"15.06397898","MEAN_MOTION_DDOT":"0.0000000000000","CLASSIFICATION_TYPE":"U","OBJECT_TYPE":"PAYLOAD","NORAD_CAT_ID":"48299","DECAY_DATE":null,"RCS_SIZE":"LARGE","MEAN_ELEMENT_THEORY":"SGP4","COUNTRY_CODE":"US","MEAN_ANOMALY":"298.0941","TLE_LINE1":"1 48299U 21036Z   22053.85163197 -.00001695  00000-0 -94943-4 0  9992","OBJECT_NAME":"STARLINK-2557","EPHEMERIS_TYPE":"0","SITE":"AFETR","MEAN_MOTION_DOT":"-0.00001695","ELEMENT_SET_NO":"999","SEMIMAJOR_AXIS":"6925.355","TLE_LINE2":"2 48299  53.0528 226.9211 0001872  62.0237 298.0941 15.06397898 45871","BSTAR":"-0.00009494300000","CENTER_NAME":"EARTH","OBJECT_ID":"2021-036Z","INCLINATION":"53.0528","GP_ID":"196684754","ECCENTRICITY":"0.00018720","TIME_SYSTEM":"UTC","FILE":"3314780","LAUNCH_DATE":"2021-04-29","REV_AT_EPOCH":"4587","ARG_OF_PERICENTER":"62.0237"},{"INCLINATION":"53.0539","OBJECT_ID":"2021-036AA","CENTER_NAME":"EARTH","BSTAR":"0.00009283900000","TLE_LINE2":"2 48300  53.0539 236.9628 0001569  74.7026 285.4137 15.06398859 45738","SEMIMAJOR_AXIS":"6925.352","MEAN_MOTION_DOT":"0.00001102","SITE":"AFETR","ELEMENT_SET_NO":"999","EPHEMERIS_TYPE":"0","OBJECT_NAME":"STARLINK-2538","MEAN_ANOMALY":"285.4137","TLE_LINE1":"1 48300U 21036AA  22053.84332944  .00001102  00000-0  92839-4 0  9995","COUNTRY_CODE":"US","ARG_OF_PERICENTER":"74.7026","REV_AT_EPOCH":"4573","LAUNCH_DATE":"2021-04-29","FILE":"3314780","TIME_SYSTEM":"UTC","ECCENTRICITY":"0.00015690","GP_ID":"196683502","MEAN_MOTION":"15.06398859","PERIAPSIS":"546.130","REF_FRAME":"TEME","EPOCH":"2022-02-22T20:14:23.663616","RA_OF_ASC_NODE":"236.9628","PERIOD":"95.592","APOAPSIS":"548.304","MEAN_ELEMENT_THEORY":"SGP4","RCS_SIZE":"LARGE","DECAY_DATE":null,"NORAD_CAT_ID":"48300","OBJECT_TYPE":"PAYLOAD","CLASSIFICATION_TYPE":"U","MEAN_MOTION_DDOT":"0.0000000000000"},{"PERIAPSIS":"546.214","MEAN_MOTION":"15.06403080","REF_FRAME":"TEME","PERIOD":"95.592","RA_OF_ASC_NODE":"237.2630","EPOCH":"2022-02-22T18:33:32.482368","APOAPSIS":"548.194","DECAY_DATE":null,"MEAN_ELEMENT_THEORY":"SGP4","RCS_SIZE":"LARGE","NORAD_CAT_ID":"48301","OBJECT_TYPE":"PAYLOAD","CLASSIFICATION_TYPE":"U","MEAN_MOTION_DDOT":"0.0000000000000","INCLINATION":"53.0555","OBJECT_ID":"2021-036AB","TLE_LINE2":"2 48301  53.0555 237.2630 0001430  74.0651 286.0495 15.06403080 45713","SEMIMAJOR_AXIS":"6925.339","CENTER_NAME":"EARTH","BSTAR":"0.00004757600000","ELEMENT_SET_NO":"999","SITE":"AFETR","MEAN_MOTION_DOT":"0.00000427","EPHEMERIS_TYPE":"0","COUNTRY_CODE":"US","OBJECT_NAME":"STARLINK-2537","MEAN_ANOMALY":"286.0495","TLE_LINE1":"1 48301U 21036AB  22053.77329262  .00000427  00000-0  47576-4 0  9994","ARG_OF_PERICENTER":"74.0651","LAUNCH_DATE":"2021-04-29","REV_AT_EPOCH":"4571","FILE":"3314780","TIME_SYSTEM":"UTC","GP_ID":"196683752","ECCENTRICITY":"0.00014300"},{"TIME_SYSTEM":"UTC","FILE":"3314780","GP_ID":"196685004","ECCENTRICITY":"0.00016220","ARG_OF_PERICENTER":"69.9046","REV_AT_EPOCH":"4572","LAUNCH_DATE":"2021-04-29","EPHEMERIS_TYPE":"0","SITE":"AFETR","ELEMENT_SET_NO":"999","MEAN_MOTION_DOT":"-0.00000415","COUNTRY_CODE":"US","TLE_LINE1":"1 48302U 21036AC  22053.83596738 -.00000415  00000-0 -89511-5 0  9991","MEAN_ANOMALY":"290.2117","OBJECT_NAME":"STARLINK-2556","OBJECT_ID":"2021-036AC","INCLINATION":"53.0556","SEMIMAJOR_AXIS":"6925.367","TLE_LINE2":"2 48302  53.0556 236.9930 0001622  69.9046 290.2117 15.06394095 45722","BSTAR":"-0.00000895110000","CENTER_NAME":"EARTH","OBJECT_TYPE":"PAYLOAD","MEAN_MOTION_DDOT":"0.0000000000000","CLASSIFICATION_TYPE":"U","DECAY_DATE":null,"RCS_SIZE":"LARGE","MEAN_ELEMENT_THEORY":"SGP4","NORAD_CAT_ID":"48302","RA_OF_ASC_NODE":"236.9930","PERIOD":"95.593","EPOCH":"2022-02-22T20:03:47.581632","APOAPSIS":"548.355","PERIAPSIS":"546.108","MEAN_MOTION":"15.06394095","REF_FRAME":"TEME"},{"ARG_OF_PERICENTER":"66.2896","LAUNCH_DATE":"2021-04-29","REV_AT_EPOCH":"4571","TIME_SYSTEM":"UTC","FILE":"3314780","ECCENTRICITY":"0.00016470","GP_ID":"196685255","INCLINATION":"53.0558","OBJECT_ID":"2021-036AD","BSTAR":"-0.00013121000000","CENTER_NAME":"EARTH","SEMIMAJOR_AXIS":"6925.299","TLE_LINE2":"2 48303  53.0558 237.2958 0001647  66.2896 293.8266 15.06416114 45719","EPHEMERIS_TYPE":"0","ELEMENT_SET_NO":"999","SITE":"AFETR","MEAN_MOTION_DOT":"-0.00002236","MEAN_ANOMALY":"293.8266","TLE_LINE1":"1 48303U 21036AD  22053.76592013 -.00002236  00000-0 -13121-3 0  9991","OBJECT_NAME":"STARLINK-2530","COUNTRY_CODE":"US","RCS_SIZE":"LARGE","MEAN_ELEMENT_THEORY":"SGP4","DECAY_DATE":null,"NORAD_CAT_ID":"48303","OBJECT_TYPE":"PAYLOAD","MEAN_MOTION_DDOT":"0.0000000000000","CLASSIFICATION_TYPE":"U","MEAN_MOTION":"15.06416114","PERIAPSIS":"546.024","REF_FRAME":"TEME","EPOCH":"2022-02-22T18:22:55.499232","PERIOD":"95.591","RA_OF_ASC_NODE":"237.2958","APOAPSIS":"548.305"},{"NORAD_CAT_ID":"48304","MEAN_ELEMENT_THEORY":"SGP4","RCS_SIZE":"LARGE","DECAY_DATE":null,"CLASSIFICATION_TYPE":"U","MEAN_MOTION_DDOT":"0.0000000000000","OBJECT_TYPE":"PAYLOAD","REF_FRAME":"TEME","MEAN_MOTION":"15.06396897","PERIAPSIS":"546.080","APOAPSIS":"548.366","EPOCH":"2022-02-22T19:53:10.736736","PERIOD":"95.592","RA_OF_ASC_NODE":"237.0211","LAUNCH_DATE":"2021-04-29","REV_AT_EPOCH":"4572","ARG_OF_PERICENTER":"72.9209","ECCENTRICITY":"0.00016510","GP_ID":"196684003","TIME_SYSTEM":"UTC","FILE":"3314780","CENTER_NAME":"EARTH","BSTAR":"0.00011251000000","TLE_LINE2":"2 48304  53.0549 237.0211 0001651  72.9209 287.1960 15.06396897 45720","SEMIMAJOR_AXIS":"6925.358","INCLINATION":"53.0549","OBJECT_ID":"2021-036AE","OBJECT_NAME":"STARLINK-2524","TLE_LINE1":"1 48304U 21036AE  22053.82859649  .00001395  00000-0  11251-3 0  9995","MEAN_ANOMALY":"287.1960","COUNTRY_CODE":"US","SITE":"AFETR","ELEMENT_SET_NO":"999","MEAN_MOTION_DOT":"0.00001395","EPHEMERIS_TYPE":"0"}];
